Region,District,FacilityName,Type,Town,Ownership,Latitude,Longitude
Brong Ahafo,Asunafo North Municipal,Ayomso Rural Clinic,Clinic,Ayomso,Government,6.76364,-2.58248
Brong Ahafo,Asunafo North Municipal,Fawohoyeden Clinic,Clinic,Fawohoyeden,Private,6.7375,-2.57282
Brong Ahafo,Asunafo North Municipal,Ayum Forest Clinic,Clinic,Mim,Government,6.90647,-2.56449
Brong Ahafo,Asunafo North Municipal,Agyei Mensah Maternity Home,Maternity Home,Gaoso,Private,6.80205,-2.51738
Brong Ahafo,Asunafo North Municipal,MIM Clinic,Clinic,Mim,Private,6.91361,-2.56503
Brong Ahafo,Asunafo North Municipal,District Assembly Maternity Home,Maternity Home,Mim,Government,6.9004,-2.5589
Brong Ahafo,Asunafo North Municipal,Goaso Hospital,District Hospital,Goaso,Government,6.8057,-2.52181
Brong Ahafo,Asunafo North Municipal,Dankwa Maternity Home,Maternity Home,Kasapin,Private,6.94324,-2.80505
Brong Ahafo,Asunafo North Municipal,Church of Pentecost Clinic,Clinic,Kasapin,CHAG,6.94076,-2.81154
Brong Ahafo,Asunafo North Municipal,Ampenkro Health Centre,Centre,Ampenkro,Government,6.94356,-2.76328
Brong Ahafo,Asunafo North Municipal,Asunafo North District Health Directorate,District Health Directorate,Goaso,Government,6.8057,-2.52181
Brong Ahafo,Asunafo North Municipal,Asumura Rural Clinic,Clinic,Asumura,Government,6.69184,-2.56169
Brong Ahafo,Asunafo North Municipal,Akrodie Health Centre,Health Centre,Akrodie,Government,6.69505,-2.5569
Brong Ahafo,Asunafo South,Kukuom Health Centre,Health Centre,Kukuom,Government,6.69659,-2.43872
Brong Ahafo,Asunafo South,Kwapong Rural Clinic,Clinic,Kwapong,Government,6.6227,-2.47506
Brong Ahafo,Asunafo South,Vic Maternity Home,Maternity Home,Norbeko,Private,6.6507,-2.42445
Brong Ahafo,Asunafo South,Sankore Health Centre,Health Centre,Sankore,Government,6.50285,-2.5017
Brong Ahafo,Asunafo South,Kokooso  Rural Clinic,Clinic,Kokooso,Government,6.64344,-2.58633
Brong Ahafo,Asunafo South,Abuom Rural Clinic,Clinic,Abuom,Government,6.61944,-2.70631
Brong Ahafo,Asunafo South,Asarekrom Rural Clinic,Clinic,Asarekrom,Government,6.57574,-2.63918
Brong Ahafo,Asutifi,Acherensua Health Centre,Health Centre,Acherensua,Government,6.98211,-2.32174
Brong Ahafo,Asutifi,Dadiesoaba Health Centre,Health Centre,Dadiesoaba,Government,6.77932,-2.41997
Brong Ahafo,Asutifi,Sienkyemu Rural Clinic,Clinic,Siekyemu,Government,6.70723,-2.39529
Brong Ahafo,Asutifi,Nyameadom Maternity  Home,Maternity Home,Twabidi No.1,Government,6.83205,-2.362
Brong Ahafo,Asutifi,Gambia No1 Rural Clinic,Clinic,Gambia  No.1,Government,7.0378,-2.6357
Brong Ahafo,Asutifi,Gyedu Health Center,Health Centre,Gyedu,Government,7.06875,-2.3248
Brong Ahafo,Asutifi,Nkasiem Community Clinic,Clinic,Nkasiem,Government,6.86509,-2.44891
Brong Ahafo,Asutifi,St.Elizabeth Hospital,Hospital,Hwidiem,CHAG,6.93279,-2.35805
Brong Ahafo,Asutifi,St. Elizabeth Maternity Home,Maternity Home,Nkensere,Private,6.99387,-2.53687
Brong Ahafo,Asutifi,Esther Nyarko Maternity Home,Maternity Home,Kenyasi,Private,6.98035,-2.38637
Brong Ahafo,Asutifi,Kenyasi Health Centre,Health Centre,Kenyasi,Government,6.97533,-2.3857
Brong Ahafo,Asutifi,Asutifi District Health Directorate,District Health Directorate,Kenyasi,Government,6.97533,-2.3857
Brong Ahafo,Atebubu-Amanten,Akokoa Health Centre,Health Centre,Akokoa,Government,7.58462,-1.15377
Brong Ahafo,Atebubu-Amanten,Amanteng Health Centre,Health Centre,Amanteng,Government,7.53828,-1.20795
Brong Ahafo,Atebubu-Amanten,Jato Zongo Rural Clinic,Clinic,Jato Zongo,Government,7.65363,-1.06465
Brong Ahafo,Atebubu-Amanten,Atebubu RCH/FP Clinic,Clinic,Atebubu,Government,7.74799,-0.98207
Brong Ahafo,Atebubu-Amanten,Atebubu Government Hospital,District Hospital,Atebubu,Government,7.74807,-0.98197
Brong Ahafo,Atebubu-Amanten,Atebubu-Amanten District Health Directorate,District Health Directorate,Atebubu,Government,7.74557,-0.98877
Brong Ahafo,Berekum Municipal,Christie Maternity Home,Maternity Home,Berekum,Private,7.46482,-2.57323
Brong Ahafo,Berekum Municipal,Aggie Maternity Home,Maternity Home,Berekum,Private,7.45745,-2.58685
Brong Ahafo,Berekum Municipal,Palm Avenue Maternity Home,Maternity Home,Berekum,Private,7.44315,-2.58212
Brong Ahafo,Berekum Municipal,Mpatasei Rural Clinic,Clinic,Mpatasei,Government,7.457,-2.58338
Brong Ahafo,Berekum Municipal,Philomina Maternity Home,Maternity Home,Berekum,Private,7.45795,-2.60001
Brong Ahafo,Berekum Municipal,Berekum Nurses/Midwifery Training College,Training Institution,Berekum,Government,7.44325,-2.58805
Brong Ahafo,Berekum Municipal,Angels maternity home,Maternity Home,Berekum,Private,7.46191,-2.59254
Brong Ahafo,Berekum Municipal,Koraso Rural Clinic,Clinic,Koraso,Government,7.48248,-2.02694
Brong Ahafo,Berekum Municipal,Akrofro CHPS,CHPS,Akrofro,Private,7.49397,-2.58871
Brong Ahafo,Berekum Municipal,Emi Maternity Home,Maternity Home,Berekum,Private,7.45051,-2.57339
Brong Ahafo,Berekum Municipal,Amomaso Rural Clinic,Clinic,Amomaso,Government,7.37385,-2.65996
Brong Ahafo,Berekum Municipal,Berekum Zongo RCH/FP Clinic,Clinic,Berekum Zongo,Government,7.45371,-2.58284
Brong Ahafo,Berekum Municipal,ABTS Clinic,Clinic,Berekum,Government,7.44034,-2.60347
Brong Ahafo,Berekum Municipal,Bre Nye Kwa Hospital,Hospital,Berekum,Government,7.44372,-2.59325
Brong Ahafo,Berekum Municipal,Holy Family Hospital,Hospital,Berekum,Private,7.44325,-2.58806
Brong Ahafo,Berekum Municipal,Botokrom Rural Clinic,Clinic,Botokrom,Government,7.5228,-2.72249
Brong Ahafo,Berekum Municipal,Jinijini Health Centre,Health Centre,Jinijini,Government,7.44656,-2.64642
Brong Ahafo,Berekum Municipal,Berekum District Health Directorate,District Health Directorate,Berekum,Government,7.44462,-2.57926
Brong Ahafo,Dormaa Municipal,Amasu Rural Clinic,Clinic,Ammasua,Government,7.22802,-2.95807
Brong Ahafo,Dormaa East,Kyeremasu Rural Clinic,Clinic,Kyeremasu,Government,7.26312,-2.76114
Brong Ahafo,Dormaa Municipal,Kwameasua Presby Clinic,Clinic,Kwameasua,Government,7.16715,-2.7701
Brong Ahafo,Dormaa Municipal,Aboabo Presby Clinic,Clinic,Aboabo,CHAG,7.20647,-2.81057
Brong Ahafo,Dormaa Municipal,Asikasu Rural Clinic,Clinic,Asikasu,Government,7.1893,-2.89066
Brong Ahafo,Dormaa Municipal,Danyami Rural Clinic,Clinic,Danyame,Government,7.34172,-2.8792
Brong Ahafo,Dormaa Municipal,Dormaa Presby Hospital,District Hospital,Dormaa,Government,7.27537,-2.86803
Brong Ahafo,Dormaa Municipal,Dormaa PHC Project,Clinic,Dormaa,Government,7.27434,-2.86719
Brong Ahafo,Dormaa Municipal,Ohenewaa Maternity Home,Clinic,Dormaa,Government,7.27435,-2.87338
Brong Ahafo,Dormaa Municipal,Dormaa RCH/FP,RCH,Dormaa,Government,7.27277,-2.87009
Brong Ahafo,Dormaa East,Dormaa Akwamu Health Centre,Health Centre,Dormaa Akwamu,Government,7.31711,-2.73729
Brong Ahafo,Dormaa East,Akontanim Rural Clinic,Clinic,Akontanim,Government,7.30811,-2.71819
Brong Ahafo,Dormaa Municipal,Kofibadukrom Port Health,Health Centre,Kofibadukrom,Government,7.28896,-2.97238
Brong Ahafo,Dormaa Municipal,Kojokumikrom Rural Clinic,Clinic,Kojokumikrom,Government,7.29063,-2.91397
Brong Ahafo,Dormaa Municipal,K/Dwomokrom Rural Clinic,Clinic,Dwomokrom,Government,7.29054,-2.90378
Brong Ahafo,Dormaa Municipal,Dormaa District Health Directorate,District Health Directorate,Dormaa,Government,7.27435,-2.87004
Brong Ahafo,Dormaa Municipal,Kwaben Maternity Home,Maternity Home,Yuwusukrom,Private,7.00092,-3.0862
Brong Ahafo,Dormaa Municipal,Nkrankwanta Health Centre,Health Centre,Nkrankwanta,Government,7.01987,-3.0862
Brong Ahafo,Dormaa Municipal,Ceci Maternity Home,Maternity Home,Nkrankwanta,Government,7.01659,-3.04393
Brong Ahafo,Dormaa East,Wamfie Health Centre,Health Centre,Wamfi,Government,7.30582,-2.73729
Brong Ahafo,Dormaa East,Bishop Mathew Gyamfi's Clinic,Clinic,Wamanafo,CHAG,7.26224,-2.71568
Brong Ahafo,Dormaa East,Racheal Maternity Home,Health Centre,Wamanafo,Private,7.26604,-2.71549
Brong Ahafo,Jaman North,Buni Community Clinic,Clinic,Buni,Government,7.80201,-2.6424
Brong Ahafo,Jaman North,Asiri Rural Clinic,Clinic,Asiri,Government,7.80156,-2.70684
Brong Ahafo,Jaman North,Asuokor Rural Clinic,CHPS,Asuoko.,Government,7.73363,-2.61549
Brong Ahafo,Jaman North,Goka Health Centre,Health Centre,Goka,Government,7.75868,-2.65616
Brong Ahafo,Jaman North,Johnsons Rural Clinic,Clinic,Goka,Quasi-Government,7.7653,-2.65532
Brong Ahafo,Jaman North,Sampa District Hospital,District Hospital,.Sampa,Government,7.95085,-2.695
Brong Ahafo,Jaman North,Holy Daniel's Clinic,Clinic,Sampa,Government,7.95075,-2.69753
Brong Ahafo,Jaman North,Suma Presby Clinic,Clinic,Suma,CHAG,7.91843,-2.71607
Brong Ahafo,Jaman North,Seketia Rural Clinic,Clinic,Seketia,Government,7.8156,-2.74399
Brong Ahafo,Jaman South,Abirikasu Health Centre,Health Centre,Abirikasu,Government,7.49369,-2.82997
Brong Ahafo,Jaman South,Angel's Maternity Home,Maternity Home,Atuna,Government,7.50335,-2.91504
Brong Ahafo,Jaman South,St. Mary's Hospital,Hospital,Drobo,Private,7.58599,-2.78549
Brong Ahafo,Jaman South,Jejemirija Presby Clinic,Clinic,Jejemiraja,Government,7.63384,-2.72654
Brong Ahafo,Jaman South,Elizabeth Maternity Home,Maternity Home,Dwenem,CHAG,7.68227,-2.78494
Brong Ahafo,Jaman South,Drobo RCH/FP,Clinic,Drobo,Government,7.5872,-2.78657
Brong Ahafo,Jaman South,Dwenem Rural Clinic,Clinic,Dwenem,Government,7.68138,-2.78094
Brong Ahafo,Jaman South,Baano Rural Clinic,Clinic,Baano,Government,7.60977,-2.90541
Brong Ahafo,Jaman South,Vida's Maternity Home,Maternity Home,Kwameseikrom,Private,7.63643,-2.90541
Brong Ahafo,Jaman South,Gonasua Health Centre,Health Centre,Gonasua,Government,7.58836,-2.82208
Brong Ahafo,Jaman South,Zezera Health Centre,Health Centre,Zezera,Private,7.73358,-2.86322
Brong Ahafo,Jaman South,St. Micheal Maternity Home,Maternity Home,Adamsu,Private,7.74365,-2.80623
Brong Ahafo,Jaman South,Adiokor Rural Clinic,Clinic,Adiokor,Private,7.75029,-2.85133
Brong Ahafo,Jaman South,Adamsu Health Centre,Health Centre,Adamsu,Government,7.7533,-2.80712
Brong Ahafo,Jaman South,Bodaa Rural Clinic,Clinic,Bodaa,Government,7.78135,-2.82046
Brong Ahafo,Jaman South,Saviour's Maternity Home,Maternity Home,Kofitiakrom,Private,7.77289,-2.84769
Brong Ahafo,Jaman South,Asare Rural Clinic,Clinic,Asare,Government,7.76307,-2.76607
Brong Ahafo,Jaman North,Jeman North District Health Directorate,District Health Directorate,Sampa,Government,7.95037,-2.69579
Brong Ahafo,Jaman South,Jaman South District Health Directorate,District Health Directorate,Drobo,Government,7.59374,-2.78768
Brong Ahafo,Kintampo North Municipal,Busuama Rural Clinic,Clinic,Busuama,Government,8.23236,-1.85531
Brong Ahafo,Kintampo North Municipal,Dawadawa Health Centre,Health Centre,Dawadawa,Government,8.35529,-1.56645
Brong Ahafo,Kintampo North Municipal,Kintampo District Hospital,District Hospital,Kintampo,Government,8.05098,-1.7312
Brong Ahafo,Kintampo North Municipal,Annor Asare Clinic,Clinic,Kintampo,Government,8.05586,-1.73341
Brong Ahafo,Kintampo North Municipal,RCH/FP Clinic,Clinic,Kintampo,Government,8.04999,-1.73102
Brong Ahafo,Kintampo North Municipal,Glory Prince of  Peace Maternity Home,Maternity Home,Kintampo,Government,8.0674,-1.72109
Brong Ahafo,Kintampo North Municipal,Kintampo Eye Clinic,Clinic,Kintampo,CHAG,8.05037,-1.7313
Brong Ahafo,Kintampo North Municipal,Kunsu Rural Clinic,Clinic,Kunsu,Government,8.14683,-1.51239
Brong Ahafo,Kintampo North Municipal,Kintampo North District Health Dirrectorate,District Health Directorate,Kintampo,Government,8.05054,-1.73235
Brong Ahafo,Kintampo North Municipal,New Longoro Health Centre,Health Centre,New Longoro,Government,8.17255,-1.83829
Brong Ahafo,Kintampo South,Amoma Rural Clinic,Clinic,Amoma,Government,7.78398,-1.87129
Brong Ahafo,Kintampo South,Anyima Rural Clinic,Clinic,Anyima,Government,7.8932,-1.87403
Brong Ahafo,Kintampo South,Perpetual Health Maternity Home,Maternity Home,Apesika,Government,7.99955,-1.54873
Brong Ahafo,Kintampo South,Jema Health Centre,Health Centre,Jema,Government,7.8905,-1.77307
Brong Ahafo,Kintampo South,Kintampo South District Health Directorate,District Health Directorate,Jema,Government,7.89152,-1.77313
Brong Ahafo,Nkoranza,Ahyiayem Rural Clinic,Clinic,Ahyiayem,Government,7.4672,-1.51826
Brong Ahafo,Nkoranza,Akuma Rural Clinic,Clinic,Akuma,Government,7.48654,-1.71839
Brong Ahafo,Nkoranza,Ayerede Rural Clinic,Clinic,Ayerede,Government,7.48594,-1.64877
Brong Ahafo,Nkoranza,Busunyaa Rural Clinic,Clinic,Busunyaa,Government,7.68463,-1.65773
Brong Ahafo,Nkoranza,Donkro-Nkwanta Rural Clinic,Clinic,Donkro-Nkwanta,Government,7.43477,-1.65995
Brong Ahafo,Nkoranza,Dromankese Health Centre,Health Centre,Dromankese,Government,7.70912,-1.56124
Brong Ahafo,Nkoranza,Kranka Rural Clinic,Clinic,Kranka,Government,7.66729,-1.81142
Brong Ahafo,Nkoranza,Nkoranza District Health Directorate,District Health Directorate,Nkoranza,Government,7.55632,-1.70002
Brong Ahafo,Nkoranza,St. Theresa's Hospital,Hospital,Nkoranza,Private,7.57152,-1.70406
Brong Ahafo,Nkoranza,Nkoranza Health Centre,Health Centre,Nkoranza,Government,7.56816,-1.71117
Brong Ahafo,Nkoranza,Nkwabeng Rural Clinic,Clinic,Nkwabeng,Government,7.49959,-1.7381
Brong Ahafo,Nkoranza,Bonsu Rural Clinic,Clinic,Bonsu,Government,7.55219,-1.78035
Brong Ahafo,Nkoranza,Yefri Health Centre,Health Centre,Yefri,Government,7.69133,-1.74787
Brong Ahafo,Pru,Abease Health Centre,Health Centre,Abease,Government,7.95847,-1.18246
Brong Ahafo,Pru,Parambo Health Centre,Health Centre,Parambo,Government,8.1252,-0.79412
Brong Ahafo,Pru,Prang Health Centre,Health Centre,Prang,Government,7.99465,-0.88928
Brong Ahafo,Pru,Bernice Maternity Home,Maternity Home,Yeji,Government,8.22924,-0.65164
Brong Ahafo,Pru,Mathias Hospital,Hospital,Yeji,Government,8.22936,-0.6551
Brong Ahafo,Sene,Bantama CHPS,CHPS,Bantama,Government,7.71152,-0.75332
Brong Ahafo,Sene,Bassa Health Centre,Health Centre,Bassa,Government,7.79016,-0.40995
Brong Ahafo,Sene,Nyankontre CHPS,CHPS,Nyakontre,Government,7.7925,-0.34233
Brong Ahafo,Sene,Kojokrom Health Centre,Health Centre,Kojokrom,Government,7.77873,-0.17077
Brong Ahafo,Sene,Kajaji Clinic,Clinic,Kajaji,Private,7.78062,-0.22055
Brong Ahafo,Sene,Sunta Clinic,Clinic,Kwame Danso,Private,7.73167,-0.67284
Brong Ahafo,Sene,Sene District Hospital,District Hospital,Kwame Danso,Government,7.73115,-0.68588
Brong Ahafo,Sene,Sene District Health Directorate,District Health Directorate,Kwami Danso,Government,7.73043,-0.68564
Brong Ahafo,Sunyani,Abesim Rural Clinic,Clinic,Abesim,Government,7.2885,-2.27099
Brong Ahafo,Sunyani,Christian Eye Centre,Health Centre,Abesim,Government,7.29219,-2.27146
Brong Ahafo,Sunyani,Mercy Maternity Home,Clinic,Berekum,Private,7.46061,-2.59739
Brong Ahafo,Sunyani,Chiraa Health Centre,Health Centre,Chiraa,Government,7.2412,-2.10578
Brong Ahafo,Sunyani,Florence Maternity Home,Maternity Home,Kofibadukrom,Private,7.29254,-2.9723
Brong Ahafo,Sunyani,Sunyani District Health Directirate,District Health Directorate,Sunyani,Government,7.33696,-2.32913
Brong Ahafo,Sunyani,Brong Ahafo Regional Health Directorate,Regional Health Directorate,Sunyani,Government,7.340233,-2.335633
Brong Ahafo,Sunyani,Amponsah Memorial Maternity Home,Maternity Home,Nsoatre,Government,7.40584,-2.46534
Brong Ahafo,Sunyani,Nsoatre Health Centre,Health Centre,Nsoatre,Government,7.39914,-2.46312
Brong Ahafo,Sunyani,Kwatire Health Centre,Clinic,Kwatire,Government,7.3853,-2.30018
Brong Ahafo,Sunyani,Bofourkrom Health Centre,Health Centre,Bofourkrom,Government,7.54614,-2.27834
Brong Ahafo,Sunyani,Louise Banks Griffin Clinic,Clinic,Odumase,Private,7.38248,-2.33091
Brong Ahafo,Sunyani,Hannah Maternity Home,Maternity Home,Odumase,Private,7.37068,-2.31991
Brong Ahafo,Sunyani,Monica's Maternity Home,Maternity Home,Sunyani,Private,7.33862,-2.31295
Brong Ahafo,Sunyani,Police Clinic,Clinic,Sunyani,Government,7.34635,-2.33026
Brong Ahafo,Sunyani,Fiapre Rural Clinic,Clinic,Fiapre,Government,7.3629,-0.3467
Brong Ahafo,Sunyani,Atuahenekrom Community Clinic,Clinic,Atuahenekrom,Government,7.11161,-2.37727
Brong Ahafo,Sunyani,Ohene Adu Clinic,Clinic,Sunyani-Penkwasi,Government,7.35717,-2.32426
Brong Ahafo,Sunyani,Antwikrom Rural Clinic,Health Centre,Antwtkrom,Government,7.22028,-2.39009
Brong Ahafo,Sunyani,Opoku Clinic,Clinic,Sunyani,Government,7.3439,-2.32856
Brong Ahafo,Sunyani,Peace Maternity Home,Maternity Home,Sunyani,Government,7.34097,-2.2999
Brong Ahafo,Sunyani,St. James Secondary Clinic,Clinic,Sunyani,Government,7.29371,-2.29166
Brong Ahafo,Sunyani,Rapid Preparatory School Clinic,Clinic,Sunyani,Government,7.32071,-2.32067
Brong Ahafo,Sunyani,3MRS-Liberation Barracks,Polyclinic,Sunyani-Barracks,Government,7.34184,-2.2946
Brong Ahafo,Sunyani,Nkwabeng Hospital,Hospital,Sunyani,Private,7.34301,-2.32741
Brong Ahafo,Sunyani,Owusu Memorial Hospital,Hospital,Sunyani,Private,7.32669,-2.33267
Brong Ahafo,Sunyani,Forestry School Cinic,Clinic,Sunyani,Government,7.34908,-2.34308
Brong Ahafo,Sunyani,Ridge Experimental School Clinic,Clinic,Sunyani,Government,7.34016,-2.3385
Brong Ahafo,Sunyani,Polytechnic Clinic,Clinic,Sunyani,Government,7.32315,-2.31733
Brong Ahafo,Sunyani,Green Hill Clinic,Clinic,Suniyani,Government,7.31655,-2.30336
Brong Ahafo,Sunyani,Sunyani Regional Hospital,Regional Hospital,Sunyani,Government,7.3446,-2.3142
Brong Ahafo,Sunyani,Sunyani Municipal Hospital,Municipal Hospital,Sunyani,Government,7.33817,-2.32858
Brong Ahafo,Sunyani,Prisons Clinic,Clinic,Sunyani,Government,7.34014,-2.33362
Brong Ahafo,Sunyani,Sunyani Nurses Training College/Health Assistants Training School,Training Institution,Sunyani,Government,7.33817,-2.32858
Brong Ahafo,Tain,Badu Health Centre,Health Centre,Badu,Government,7.70032,-2.23032
Brong Ahafo,Tain,Banda Ahenkro Rural Clinic,Clinic,Banda Ahenkro,Government,8.1636,-2.3575
Brong Ahafo,Tain,Bui Rural Clinic,Clinic,Bui,Government,8.25048,-2.26765
Brong Ahafo,Tain,Sabiye Health Centre,Health Centre,Sabiye,Government,8.07308,-2.35153
Brong Ahafo,Tain,Mamase Rural Clinic,Clinic,Mamase,Government,7.90103,-2.48373
Brong Ahafo,Tain,Hani CHPS,CHPS,Hani,Government,7.8485,-2.47551
Brong Ahafo,Tain,Debibi Health Centre,Health Centre,Debibi,Government,7.8959,-2.53924
Brong Ahafo,Tain,Tafsiru Maternity Home,Maternity Home,Menji,Government,7.92632,-2.38335
Brong Ahafo,Tain,Menji Community Clinic,Clinic,Menji,Government,7.92558,-2.38
Brong Ahafo,Tain,Nsawkaw Health Centre,Health Centre,Nsawkaw,Government,7.87659,-2.31514
Brong Ahafo,Tain,Brohani CHPS,CHPS,Brohani,Government,7.97551,-2.4203
Brong Ahafo,Tain,Seikwa Health Centre,Health Centre,Seikwa,Government,7.72836,-2.51792
Brong Ahafo,Tano North,Adrobaa Rural Clinic,Clinic,Adrobaa,Government,7.2628,-2.13179
Brong Ahafo,Tano North,Bomaa Health Centre,Health Centre,Bomaa,Government,7.08675,-2.16797
Brong Ahafo,Tano North,St. John of God Hospital,Hospital,Duayaw Nkwanta,Government,7.17559,-2.0967
Brong Ahafo,Tano North,Tanoso Rural Clinic,Clinic,Tanoso,Government,7.2683,-2.236
Brong Ahafo,Tano North,Yamfo Health Centre,Health Centre,Yamfo,Government,7.22567,-2.2411
Brong Ahafo,Tano South,Trinity Maternity Home,Maternity Home,Brosankro,CHAG,7.04685,-2.10048
Brong Ahafo,Tano South,Bechem Government Hospital,District Hospital,Bechem,Government,7.08831,-2.02947
Brong Ahafo,Tano South,Derma Health Centre,Health Centre,Derma,Government,7.20855,-1.94901
Brong Ahafo,Tano South,Tano South District Health Directorate,District Health Directorate,Bechem,Government,7.0696,-2.02233
Brong Ahafo,Tano South,Techimantia Health Centre,Health Centre,Techimantia,Government,7.18142,-2.02874
Brong Ahafo,Techiman,Aworowa Health Centre,Clinic,Aworowa,Government,7.61979,-2.01215
Brong Ahafo,Techiman,Buoyem Health Centre,Health Centre,Buotem,Government,7.66606,-1.96107
Brong Ahafo,Techiman,Forikrom Rural Clinic,Clinic,Forikrom,Government,7.59382,-1.86387
Brong Ahafo,Techiman,Fiaso CHPS,CHPS,Fiaso,Government,7.57912,-1.81848
Brong Ahafo,Techiman,Asantaso Rural Clinic,Clinic,Asantanso,CHAG,7.54566,-1.8655
Brong Ahafo,Techiman,Techiman Municipal Health Directorate,Municipal Health Directorate,Techiman,Government,7.56243,-1.93487
Brong Ahafo,Techiman,Nsuta Health Centre,Health Centre,Nsuta,CHAG,7.52836,-2.07377
Brong Ahafo,Techiman,Offuman Health Centre,Health Centre,Offuman,Government,7.78352,-1.96996
Brong Ahafo,Techiman,Tanoso Health Centre,Health Centre,Tanoso,Government,7.47145,-1.97852
Brong Ahafo,Techiman,Techiman Subdistrict Clinic,Clinic,Techiman,CHAG,7.58998,-1.94437
Brong Ahafo,Techiman,Arm's Maternity Home,Maternity Home,Techiman,Private,7.59118,-1.93813
Brong Ahafo,Techiman,Kristo Nti  Maternity Home,Maternity Home,Techiman,Private,7.56965,-1.94848
Brong Ahafo,Techiman,Techiman  Secondary School Clinic,Clinic,Techiman,Government,7.56944,-1.93697
Brong Ahafo,Techiman,Alice Maternity Home,Maternity Home,Gyako,Private,7.59064,-1.94684
Brong Ahafo,Techiman,Nkwahia Maternity Home,Maternity Home,Techiman,Private,7.57921,-1.93076
Brong Ahafo,Techiman,Ahamadiya Moslem Hospital,Hospital,Techiman,Private,7.58611,-1.9317
Brong Ahafo,Techiman,Opoku Agyeman Hospital,Hospital,Techiman,Government,7.56288,-1.93692
Brong Ahafo,Techiman,Station Clinic,Clinic,Techiman,Government,7.58451,-1.93631
Brong Ahafo,Techiman,Holy Family Hospital,Hospital,Techiman,CHAG,7.59193,-1.93944
Brong Ahafo,Techiman,Tuobodom Health Centre,Health Centre,Tuobodom,Government,7.63484,-1.91209
Brong Ahafo,Wenchi,Asuogya RCH/FP,Clinic,Droboso,Government,7.70134,-2.10643
Brong Ahafo,Wenchi,Wenchi District Health Directorate,District Health Directorate,Wenchi,Government,7.74497,-2.00998
Brong Ahafo,Wenchi,Subinso Health Centre,Health Centre,Subinso,Government,7.94251,-2.05399
Brong Ahafo,Wenchi,Nchiraa Rural Clinic,Clinic,Nchiraa,Government,7.89522,-1.98159
Brong Ahafo,Wenchi,RCH Clinic Wenchi,Clinic,Wenchi,Government,7.7444,-2.10038
Brong Ahafo,Wenchi,Wencgi Methodist Hospital,Hospital,Wenchi,CHAG,7.73854,-2.111
Brong Ahafo,Wenchi,Ampaabeng Kyeremeh Clinic,Clinic,Wenchi,Government,7.73557,-2.1087
Brong Ahafo,Wenchi,Gov't. Maternity Home,Maternity Home,Wenchi,Government,7.74081,-2.11169
Brong Ahafo,Wenchi,Nyaase Royal Maternity  Home,Maternity Home,Wenchi Bandaline,Private,7.74042,-2.10208
Brong Ahafo,Wenchi,Emil Memorial Hospital,Hospital,Wenchi,Government,7.73964,-2.09488
Brong Ahafo,Tano North,Tanoso Community Health Nurses Training School,Training Institution,Tanoso,Government,7.2169497,-2.1843285
Brong Ahafo,Asutifi,Biaso CHPS,CHPS,Biaso,Government,6.9577082,-2.4208713
Brong Ahafo,Asunafo South,Nankete CHPS,CHPS,Nankete,Government,6.6148152,-2.4999918
Brong Ahafo,Dormaa Municipal,Florence Maternity Home,Maternity Home,Wamfie,Private,7.277284,-2.876257
Brong Ahafo,Dormaa Municipal,EMC Kwaku Any Maternity Home,Maternity Home,Wamfie,Private,7.277284,-2.876257
Brong Ahafo,Jaman North,Adadiem Rural Clinic,Clinic,Adadiem,Government,7.9072974,-2.6586401
Brong Ahafo,Jaman North,Mayera Rural Clinic,Clinic,Mayera,Government,7.9072974,-2.6586401
Brong Ahafo,Jaman North,Kokoa Rural Clinic,Clinic,Kokoa,Government,7.9072974,-2.6586401
Brong Ahafo,Nkoranza North,Rabito Clinic,Clinic,Nkoranza,Private,7.5666667,-1.7
Brong Ahafo,Sene,Lassi CHPS,CHPS,Lassi,Government,7.6111895,-0.4502368
Brong Ahafo,Sene,Kwame Danso Hospital,Hospital,Kwame Danso,Government,7.6111895,-0.4502368
Brong Ahafo,Techiman Municipal,Techiman Poly. Clinic,Clinic,Techiman,Government,7.5772222,-1.9291667
Brong Ahafo,Techiman Municipal,Market Clinic,Clinic,Techiman,Government,7.5772222,-1.9291667
Brong Ahafo,Techiman Municipal,Nkwaeso Clinic,Clinic,Nkwaeso,Government,7.5772222,-1.9291667
Brong Ahafo,Wenchi Municipal,Droboso Clinic,Clinic,Droboso,Government,7.734117,-2.103572
Brong Ahafo,Berekum Municipal,Christian Eye Centre,Clinic,Brekum,CHAG,7.5977302,-1.9359593
Brong Ahafo,Berekum Municipal,Nkyekyemanu Rural Clinic,Clinic,Nkyekyemanu,Government,7.5977302,-1.9359593
Brong Ahafo,Kintampo North Municipal,Kintampo Rural Health Training School,Training Institution,Kintampo,Government,7.5977302,-1.9359593
Brong Ahafo,Sunyani Municipal,Susec Clinic,Clinic,Sunyani,Government,7.3333333,-2.3333333
Brong Ahafo,Sunyani Municipal,Notre Dame Sch. Clinic,Clinic,Sunyani,Government,7.3333333,-2.3333333
Brong Ahafo,Sunyani Municipal,Ratchlik Clinic,Clinic,Sunyani,Private,7.3333333,-2.3333333
Brong Ahafo,Sunyani Municipal,Atuahenekrom Clinic,Clinic,Atuahene,Private,7.3333333,-2.3333333
Brong Ahafo,Sunyani Municipal,Abesim Eye Clinic,Clinic,Abesim,CHAG,7.3333333,-2.3333333
Brong Ahafo,Sunyani Municipal,Fofie Memorial Clinic,Clinic,Sunyani,Private,7.3333333,-2.3333333
Brong Ahafo,Sunyani West,Holy Daniel Clinic,Clinic,Sunyani,Private,7.3333333,-2.3333333
Brong Ahafo,Sunyani Municipal,SDA Hospital,Hospital,Sunyani,Private,7.3333333,-2.3333333
Brong Ahafo,Tain,Anyekrom Health Centre,Health Centre,Anyekrom,Government,8.0396604,-2.3813621
Brong Ahafo,Tain,Nyarko Maternity Home,Maternity Home,Seikwa,Private,8.0396604,-2.3813621
Brong Ahafo,Pru,Zabrama Health Centre,Health Centre,Zabrama,Private,8.0445086,-1.2891036
Brong Ahafo,Kintampo South,Adom Maternity Home,Maternity Home,Kimtampo,Private,7.8685183,-1.7538817
Brong Ahafo,Kintampo South,Apesika Clinic,Clinic,Apesika,Private,7.8685183,-1.7538817
Brong Ahafo,Kintampo South,Mansie Clinic,Clinic,Mansie,Private,7.8685183,-1.7538817
Brong Ahafo,Tano South,Brosankro Maternity Home,Maternity Home,Brosankro,Private,7.1315171,-2.027319
Brong Ahafo,Jaman South,Psychiatric Clinic,Clinic,Drobo,Government,7.6887685,-2.8577105
Brong Ahafo,Berekum Municipal,Mercy Clinic,Clinic,Brekum,Private,7.4041716,-2.4439253
Brong Ahafo,Berekum Municipal,Anyinasu CHPS,CHPS,Anyinasu,Government,7.4041716,-2.4439253
Brong Ahafo,Atebubu-Amanten,Christian Eye Centre,Clinic,Brekum,CHAG,7.75,-0.9833333
Brong Ahafo,Asunafo North Municipal,Bitre CHPS,CHPS,Bitre,Government,6.827593,-2.698387
Brong Ahafo,Asunafo North Municipal,Gyasikrom CHPS,CHPS,Gyasikrom,Government,6.827593,-2.698387
Brong Ahafo,Asunafo North Municipal,Ahmadiyya Muslim Hospital,Hospital,Mim,Muslim,6.827593,-2.698387
Brong Ahafo,Asunafo North Municipal,WAM CHPS,CHPS,WAM,Government,6.827593,-2.698387
Brong Ahafo,Asunafo South,Noberkaw CHPS,CHPS,Noberkaw,Government,6.614815,-2.499992
Brong Ahafo,Asunafo South,1000 Acre CHPS,CHPS,1000 Acre,Government,6.614815,-2.499992
Brong Ahafo,Asunafo South,New Saweresu CHPS,CHPS,New Saweresu,Government,6.614815,-2.499992
Brong Ahafo,Asutifi,Goamu Koforidua CHPS,CHPS,Goamu Koforidua,Government,6.9577082,-2.4208713
Brong Ahafo,Asutifi,ISOS Clinic,Clinic,Kenyasi,Government,6.9577082,-2.4208713
Brong Ahafo,Asutifi,Blessed Family Maternity Home,Maternity Home,Dadiesoaba,Private,6.9577082,-2.4208713
Brong Ahafo,Asutifi,Nkaseim CHPS,CHPS,Hwidiem,Government,6.9577082,-2.4208713
Brong Ahafo,Asutifi,Apenemadi CHPS,CHPS,Hwidiem,Government,6.9577082,-2.4208713
Brong Ahafo,Atebubu-Amanten,MEM CHPS,CHPS,Atebubu,Government,7.75,-0.983333
Brong Ahafo,Atebubu-Amanten,Akomade Clinic,Clinic,Atebubu,Government,7.75,-0.983333
Brong Ahafo,Atebubu-Amanten,Adom Maternity Home,Maternity Home,Atebubu,Private,7.75,-0.983333
Brong Ahafo,Atebubu-Amanten,Garadima CHPS,CHPS,Garadima,Government,7.75,-0.983333
Brong Ahafo,Atebubu-Amanten,Kumfia Clinic,Clinic,Kumfia,Government,7.75,-0.983333
Brong Ahafo,Atebubu-Amanten,Nyomoase CHPS,CHPS,Nyomoase,Government,7.75,-0.983333
Brong Ahafo,Berekum Municipal,Namasua CHPS,CHPS,Namasua,Government,7.45,-2.583333
Brong Ahafo,Berekum Municipal,Tewbabi CHPS,CHPS,Tewbabi,Government,7.45,-2.583333
Brong Ahafo,Berekum Municipal,RCH DHD,RCH,Berekum,Government,7.45,-2.583333
Brong Ahafo,Berekum Municipal,Clean Hands Maternity Home,Maternity Home,Berekum,Private,7.45,-2.583333
Brong Ahafo,Berekum Municipal,Dr Larbi Clinic,Clinic,Berekum,Private,7.45,-2.583333
Brong Ahafo,Berekum Municipal,Betco Clinic,Clinic,Berekum,Private,7.45,-2.583333
Brong Ahafo,Dormaa Municipal,Saviour Clinic,Clinic,Dormaa Ahenkro,Private,7.277284,-2.876257
Brong Ahafo,Dormaa Municipal,Twumkrom CHPS,Clinic,Twumkrom,Government,7.277284,-2.876257
Brong Ahafo,Dormaa Municipal,Gonokrom CHPS,CHPS,Gonokrom,Government,7.277284,-2.876257
Brong Ahafo,Dormaa Municipal,New Chiraa PHC,CHPS,New Chiraa,Government,7.277284,-2.876257
Brong Ahafo,Dormaa Municipal,Kwakuanya Methodist Clinic,Clinic,Kwakuanya,CHAG,7.277284,-2.876257
Brong Ahafo,Dormaa Municipal,Awiakrom Community Clinic,Clinic,Awiakrom,Private,7.277284,-2.876257
Brong Ahafo,Dormaa East,Kofiboukrom CHPS,CHPS,Kofiboukrom,Government,7.277284,-2.876257
Brong Ahafo,Jaman North,Duadaso Rural Clinic,Clinic,Duadaso,Government,6.957708,-2.420871
Brong Ahafo,Jaman North,Amanfoso CHPS,CHPS,Amanfoso,Government,6.957708,-2.420871
Brong Ahafo,Jaman North,Kokosua Rural Clinic,Clinic,Kokosua,Government,6.957708,-2.420871
Brong Ahafo,Jaman South,Atuna CHPS,CHPS,Atuna,Government,6.957708,-2.420871
Brong Ahafo,Jaman South,Abuokrom CHPS,CHPS,Abuokrom,Government,6.957708,-2.420871
Brong Ahafo,Jaman South,Tekese CHPS,CHPS,Tekese,Government,6.957708,-2.420871
Brong Ahafo,Jaman South,Asempanaye CHPS,CHPS,Asempanaye,Government,6.957708,-2.420871
Brong Ahafo,Asunafo South,Tanoso Community Health Nurses Training School,Training Institution,Tanoso,Government,6.6148152,-2.4999918
Brong Ahafo,Asutifi,Biaso Rural Clinic,Clinic,Biaso,Government,6.9577082,-2.4208713
Brong Ahafo,Asunafo South,Nankete CHPS,CHPS,Nankete,Government,6.6148152,-2.4999918
Brong Ahafo,Dormaa Municipal,Florence Maternity Home,Maternity Home,,Maternity Home,7.277284,-2.876257
Brong Ahafo,Dormaa Municipal,EMC Kwaku Any Maternity Home,Maternity Home,,Maternity Home,7.277284,-2.876257
Brong Ahafo,Jaman North,Adadiem Rural Clinic,Clinic,Adadiem,Clinic,7.9072974,-2.6586401
Brong Ahafo,Jaman North,Mayera Health Centre,Clinic,Mayera,Government,7.9072974,-2.6586401
Brong Ahafo,Jaman North,Kokoa Rural Clinic,Clinic,Kokoa,Government,7.9072974,-2.6586401
Brong Ahafo,Jaman North,Suma Community Clinic,Clinic,Suma Ahenkro,Government,7.9072974,-2.6586401
Brong Ahafo,Nkoranza North,Rabito Clinic,Clinic,Nkoranza,Private,7.5666667,-1.7
Brong Ahafo,Sene,Lassi CHPS,CHPS,Lassi,Government,7.6111895,-0.4502368
Brong Ahafo,Sene,Kwame Danso Hospital,Hospital,Kwame Danso,Government,7.6111895,-0.4502368
Brong Ahafo,Techiman Municipal,Techiman Poly. Clinic,Clinic,Techiman,Government,7.5772222,-1.9291667
Brong Ahafo,Techiman Municipal,Market Clinic,Clinic,Techiman,Government,7.5772222,-1.9291667
Brong Ahafo,Techiman Municipal,Nkwaeso Clinic,Clinic,Nkwaeso,Government,7.5772222,-1.9291667
Brong Ahafo,Wenchi Municipal,Droboso Clinic,Clinic,Droboso,Government,7.734117,-2.103572
Brong Ahafo,Berekum Municipal,Christian Eye Centre,Clinic,Brekum,CHAG,7.4041716,-2.4439253
Brong Ahafo,Berekum Municipal,Nkyekyemanu Rural Clinic,Clinic,Nkyekyemanu,Private,7.4041716,-2.4439253
Brong Ahafo,Kintampo North Municipal,Kintampo Rural Health Training School,Training Institution,Kintampo,Government,7.5977302,-1.9359593
Brong Ahafo,Sunyani Municipal,Susec Clinic,Clinic,Sunyani,Private,7.3333333,-2.3333333
Brong Ahafo,Sunyani Municipal,Notre Dame Sch. Clinic,Clinic,Sunyani,Private,7.3333333,-2.3333333
Brong Ahafo,Sunyani Municipal,Ratchlik Clinic,Clinic,Sunyani,Private,7.3333333,-2.3333333
Brong Ahafo,Asunafo North Municipal,Scanstyle Clinic,Clinic,Mim,Private,6.91361,-2.56503
Brong Ahafo,Sunyani Municipal,Atuahenekrom Clinic,Clinic,Atuahenekrom,Private,7.3333333,-2.3333333
Brong Ahafo,Sunyani Municipal,Abesim Eye Clinic,Clinic,Abesim,Private,7.3333333,-2.3333333
Brong Ahafo,Sunyani Municipal,Fofie Memorial Clinic,Clinic,Sunyani,Private,7.3333333,-2.3333333
Brong Ahafo,Sunyani West,Holy Daniel Clinic,Clinic,Sunyani,Private,7.3333333,-2.3333333
Brong Ahafo,Sunyani Municipal,SDA Hospital,Hospital,Sunyani,CHAG,7.3333333,-2.3333333
Brong Ahafo,Tain,Anyekrom Health Centre,Health Centre,Anyekrom,Government,8.0396604,-2.3813621
Brong Ahafo,Tain,Nyarko Maternity Home,Maternity Home,,Private,8.0396604,-2.3813621
Brong Ahafo,Pru,Zabrama Health Centre,Health Centre,Zabrama,Government,8.0445086,-1.2891036
Brong Ahafo,Kintampo South,Adom Maternity Home,Maternity Home,,Private,7.8685183,-1.7538817
Brong Ahafo,Kintampo South,Apesika Clinic,Clinic,,Private,7.8685183,-1.7538817
Brong Ahafo,Kintampo South,Mansie Clinic,Clinic,,Private,7.8685183,-1.7538817
Brong Ahafo,Tano South,Brosankro Maternity Home,Maternity Home,,Private,7.1315171,-2.027319
Brong Ahafo,Jaman South,Psychiasdtric Unit,Clinic,,Government,7.6887685,-2.8577105
Brong Ahafo,Jaman South,Eye Clinic,Clinic,,Private,7.6887685,-2.8577105
Brong Ahafo,Berekum Municipal,Mercy Clinic,Clinic,,Private,7.4041716,-2.4439253
Brong Ahafo,Berekum Municipal,Anyinasu Rural Health Clinic,Clinic,Anyinasu,Government,7.4041716,-2.4439253
Brong Ahafo,Atebubu-Amanten,Christian Eye Centre,Clinic,Brekum,CHAG,7.75,-0.9833333
